STARLINK-36702          
1 67714U 26025X   26042.66668981 -.00565514  13258-3 -52395-3 0  9991
2 67714  97.2823 152.5725 0001344  58.4719 112.6137 16.12284552  1458
STARLINK-36718          
1 67715U 26025Y   26042.66668981 -.00546345  12504-3 -49255-3 0  9997
2 67715  97.2821 152.5741 0001261  60.2520 113.3753 16.12688008  1663
STARLINK-36715          
1 67716U 26025Z   26042.66668981 -.00454156  88565-4 -41087-3 0  9992
2 67716  97.2820 152.5731 0001394  46.7177 126.0886 16.12622621  1720
STARLINK-36385          
1 67717U 26025AA  26042.82358649  .00049044  34747-5  46120-4 0  9990
2 67717  97.2831 152.7464 0001650  32.3527 327.7858 16.12268915  1847
CZ-2F DEB               
1 67718U 26024E   26044.68359972  .00246099  00000+0  50549-2 0  9992
2 67718  50.3153 135.7954 0267391 185.7197 174.0687 15.14828555   982
CZ-2F DEB               
1 67719U 26024F   26044.69753948  .00187799  00000+0  48876-2 0  9996
2 67719  49.7903 136.7216 0338998 175.3877 185.0324 14.95886257   646
CZ-2F DEB               
1 67720U 26024G   26044.70920666  .00186197  00000+0  49728-2 0  9991
2 67720  49.8299 136.7793 0349690 172.1225 188.5411 14.93223191   960
2026-027A               
1 67746U 26027A   26044.96444241  .00009228  00000+0  46653-3 0  9994
2 67746  97.4870 174.2410 0009235 284.1235  75.8971 15.17237572   265
2026-027B               
1 67747U 26027B   26044.96433008  .00008986  00000+0  45308-3 0  9990
2 67747  97.4864 174.2408 0009406 286.7383  73.2818 15.17338549   266
2027-027C               
1 67748U 27027C   26044.96416179  .00006539  00000+0  32932-3 0  9993
2 67748  97.4876 174.2416 0009849 289.9658  70.0514 15.17485537   268
2026-027D               
1 67749U 26027D   26044.96401649  .00010664  00000+0  53254-3 0  9993
2 67749  97.4873 174.2417 0009690 293.8872  66.1346 15.17625342   262
2026-027E               
1 67750U 26027E   26044.96399991  .00008914  00000+0  44568-3 0  9994
2 67750  97.4882 174.2420 0008838 296.3498  63.6828 15.17640852   263
