CCSDS_OMM_VERS = 2.0
CREATION_DATE  = 
ORIGINATOR     = 

OBJECT_NAME    = STARLINK-36702
OBJECT_ID      = 2026-025X
CENTER_NAME    = EARTH
REF_FRAME      = TEME
TIME_SYSTEM    = UTC
MEAN_ELEMENT_THEORY = SGP/SGP4

EPOCH          = 2026-02-11T16:00:01.999584
MEAN_MOTION    = 16.12284552
ECCENTRICITY   = .00013447
INCLINATION    = 97.2823
RA_OF_ASC_NODE = 152.5725
ARG_OF_PERICENTER = 58.4719
MEAN_ANOMALY   = 112.6137

EPHEMERIS_TYPE = 0
CLASSIFICATION_TYPE = U
NORAD_CAT_ID   = 67714
ELEMENT_SET_NO = 999
REV_AT_EPOCH   = 145
BSTAR          = -.52394615E-3
MEAN_MOTION_DOT = -.565514E-2
MEAN_MOTION_DDOT = .13257509E-3

CCSDS_OMM_VERS = 2.0
CREATION_DATE  = 
ORIGINATOR     = 

OBJECT_NAME    = STARLINK-36718
OBJECT_ID      = 2026-025Y
CENTER_NAME    = EARTH
REF_FRAME      = TEME
TIME_SYSTEM    = UTC
MEAN_ELEMENT_THEORY = SGP/SGP4

EPOCH          = 2026-02-11T16:00:01.999584
MEAN_MOTION    = 16.12688008
ECCENTRICITY   = .00012611
INCLINATION    = 97.2821
RA_OF_ASC_NODE = 152.5741
ARG_OF_PERICENTER = 60.2520
MEAN_ANOMALY   = 113.3753

EPHEMERIS_TYPE = 0
CLASSIFICATION_TYPE = U
NORAD_CAT_ID   = 67715
ELEMENT_SET_NO = 999
REV_AT_EPOCH   = 166
BSTAR          = -.49254598E-3
MEAN_MOTION_DOT = -.546345E-2
MEAN_MOTION_DDOT = .12503996E-3

CCSDS_OMM_VERS = 2.0
CREATION_DATE  = 
ORIGINATOR     = 

OBJECT_NAME    = STARLINK-36715
OBJECT_ID      = 2026-025Z
CENTER_NAME    = EARTH
REF_FRAME      = TEME
TIME_SYSTEM    = UTC
MEAN_ELEMENT_THEORY = SGP/SGP4

EPOCH          = 2026-02-11T16:00:01.999584
MEAN_MOTION    = 16.12622621
ECCENTRICITY   = .00013943
INCLINATION    = 97.2820
RA_OF_ASC_NODE = 152.5731
ARG_OF_PERICENTER = 46.7177
MEAN_ANOMALY   = 126.0886

EPHEMERIS_TYPE = 0
CLASSIFICATION_TYPE = U
NORAD_CAT_ID   = 67716
ELEMENT_SET_NO = 999
REV_AT_EPOCH   = 172
BSTAR          = -.41086984E-3
MEAN_MOTION_DOT = -.454156E-2
MEAN_MOTION_DDOT = .88565282E-4

CCSDS_OMM_VERS = 2.0
CREATION_DATE  = 
ORIGINATOR     = 

OBJECT_NAME    = STARLINK-36385
OBJECT_ID      = 2026-025AA
CENTER_NAME    = EARTH
REF_FRAME      = TEME
TIME_SYSTEM    = UTC
MEAN_ELEMENT_THEORY = SGP/SGP4

EPOCH          = 2026-02-11T19:45:57.872736
MEAN_MOTION    = 16.12268915
ECCENTRICITY   = .00016501
INCLINATION    = 97.2831
RA_OF_ASC_NODE = 152.7464
ARG_OF_PERICENTER = 32.3527
MEAN_ANOMALY   = 327.7858

EPHEMERIS_TYPE = 0
CLASSIFICATION_TYPE = U
NORAD_CAT_ID   = 67717
ELEMENT_SET_NO = 999
REV_AT_EPOCH   = 184
BSTAR          = .4611974E-4
MEAN_MOTION_DOT = .49044E-3
MEAN_MOTION_DDOT = .3474681E-5

CCSDS_OMM_VERS = 2.0
CREATION_DATE  = 
ORIGINATOR     = 

OBJECT_NAME    = CZ-2F DEB
OBJECT_ID      = 2026-024E
CENTER_NAME    = EARTH
REF_FRAME      = TEME
TIME_SYSTEM    = UTC
MEAN_ELEMENT_THEORY = SGP/SGP4

EPOCH          = 2026-02-13T16:24:23.015808
MEAN_MOTION    = 15.14828555
ECCENTRICITY   = .02673918
INCLINATION    = 50.3153
RA_OF_ASC_NODE = 135.7954
ARG_OF_PERICENTER = 185.7197
MEAN_ANOMALY   = 174.0687

EPHEMERIS_TYPE = 0
CLASSIFICATION_TYPE = U
NORAD_CAT_ID   = 67718
ELEMENT_SET_NO = 999
REV_AT_EPOCH   = 98
BSTAR          = .50548893E-2
MEAN_MOTION_DOT = .246099E-2
MEAN_MOTION_DDOT = 0

CCSDS_OMM_VERS = 2.0
CREATION_DATE  = 
ORIGINATOR     = 

OBJECT_NAME    = CZ-2F DEB
OBJECT_ID      = 2026-024F
CENTER_NAME    = EARTH
REF_FRAME      = TEME
TIME_SYSTEM    = UTC
MEAN_ELEMENT_THEORY = SGP/SGP4

EPOCH          = 2026-02-13T16:44:27.411072
MEAN_MOTION    = 14.95886257
ECCENTRICITY   = .03389981
INCLINATION    = 49.7903
RA_OF_ASC_NODE = 136.7216
ARG_OF_PERICENTER = 175.3877
MEAN_ANOMALY   = 185.0324

EPHEMERIS_TYPE = 0
CLASSIFICATION_TYPE = U
NORAD_CAT_ID   = 67719
ELEMENT_SET_NO = 999
REV_AT_EPOCH   = 64
BSTAR          = .48875808E-2
MEAN_MOTION_DOT = .187799E-2
MEAN_MOTION_DDOT = 0

CCSDS_OMM_VERS = 2.0
CREATION_DATE  = 
ORIGINATOR     = 

OBJECT_NAME    = CZ-2F DEB
OBJECT_ID      = 2026-024G
CENTER_NAME    = EARTH
REF_FRAME      = TEME
TIME_SYSTEM    = UTC
MEAN_ELEMENT_THEORY = SGP/SGP4

EPOCH          = 2026-02-13T17:01:15.455424
MEAN_MOTION    = 14.93223191
ECCENTRICITY   = .03496901
INCLINATION    = 49.8299
RA_OF_ASC_NODE = 136.7793
ARG_OF_PERICENTER = 172.1225
MEAN_ANOMALY   = 188.5411

EPHEMERIS_TYPE = 0
CLASSIFICATION_TYPE = U
NORAD_CAT_ID   = 67720
ELEMENT_SET_NO = 999
REV_AT_EPOCH   = 96
BSTAR          = .49728358E-2
MEAN_MOTION_DOT = .186197E-2
MEAN_MOTION_DDOT = 0

CCSDS_OMM_VERS = 2.0
CREATION_DATE  = 
ORIGINATOR     = 

OBJECT_NAME    = 2026-027A
OBJECT_ID      = 2026-027A
CENTER_NAME    = EARTH
REF_FRAME      = TEME
TIME_SYSTEM    = UTC
MEAN_ELEMENT_THEORY = SGP/SGP4

EPOCH          = 2026-02-13T23:08:47.824224
MEAN_MOTION    = 15.17237572
ECCENTRICITY   = .00092359
INCLINATION    = 97.4870
RA_OF_ASC_NODE = 174.2410
ARG_OF_PERICENTER = 284.1235
MEAN_ANOMALY   = 75.8971

EPHEMERIS_TYPE = 0
CLASSIFICATION_TYPE = U
NORAD_CAT_ID   = 67746
ELEMENT_SET_NO = 999
REV_AT_EPOCH   = 26
BSTAR          = .46652856E-3
MEAN_MOTION_DOT = .9228E-4
MEAN_MOTION_DDOT = 0

CCSDS_OMM_VERS = 2.0
CREATION_DATE  = 
ORIGINATOR     = 

OBJECT_NAME    = 2026-027B
OBJECT_ID      = 2026-027B
CENTER_NAME    = EARTH
REF_FRAME      = TEME
TIME_SYSTEM    = UTC
MEAN_ELEMENT_THEORY = SGP/SGP4

EPOCH          = 2026-02-13T23:08:38.118912
MEAN_MOTION    = 15.17338549
ECCENTRICITY   = .00094069
INCLINATION    = 97.4864
RA_OF_ASC_NODE = 174.2408
ARG_OF_PERICENTER = 286.7383
MEAN_ANOMALY   = 73.2818

EPHEMERIS_TYPE = 0
CLASSIFICATION_TYPE = U
NORAD_CAT_ID   = 67747
ELEMENT_SET_NO = 999
REV_AT_EPOCH   = 26
BSTAR          = .45307669E-3
MEAN_MOTION_DOT = .8986E-4
MEAN_MOTION_DDOT = 0

CCSDS_OMM_VERS = 2.0
CREATION_DATE  = 
ORIGINATOR     = 

OBJECT_NAME    = 2027-027C
OBJECT_ID      = 2027-027C
CENTER_NAME    = EARTH
REF_FRAME      = TEME
TIME_SYSTEM    = UTC
MEAN_ELEMENT_THEORY = SGP/SGP4

EPOCH          = 2026-02-13T23:08:23.578656
MEAN_MOTION    = 15.17485537
ECCENTRICITY   = .00098498
INCLINATION    = 97.4876
RA_OF_ASC_NODE = 174.2416
ARG_OF_PERICENTER = 289.9658
MEAN_ANOMALY   = 70.0514

EPHEMERIS_TYPE = 0
CLASSIFICATION_TYPE = U
NORAD_CAT_ID   = 67748
ELEMENT_SET_NO = 999
REV_AT_EPOCH   = 26
BSTAR          = .32932362E-3
MEAN_MOTION_DOT = .6539E-4
MEAN_MOTION_DDOT = 0

CCSDS_OMM_VERS = 2.0
CREATION_DATE  = 
ORIGINATOR     = 

OBJECT_NAME    = 2026-027D
OBJECT_ID      = 2026-027D
CENTER_NAME    = EARTH
REF_FRAME      = TEME
TIME_SYSTEM    = UTC
MEAN_ELEMENT_THEORY = SGP/SGP4

EPOCH          = 2026-02-13T23:08:11.024736
MEAN_MOTION    = 15.17625342
ECCENTRICITY   = .00096909
INCLINATION    = 97.4873
RA_OF_ASC_NODE = 174.2417
ARG_OF_PERICENTER = 293.8872
MEAN_ANOMALY   = 66.1346

EPHEMERIS_TYPE = 0
CLASSIFICATION_TYPE = U
NORAD_CAT_ID   = 67749
ELEMENT_SET_NO = 999
REV_AT_EPOCH   = 26
BSTAR          = .53254139E-3
MEAN_MOTION_DOT = .10664E-3
MEAN_MOTION_DDOT = 0

CCSDS_OMM_VERS = 2.0
CREATION_DATE  = 
ORIGINATOR     = 

OBJECT_NAME    = 2026-027E
OBJECT_ID      = 2026-027E
CENTER_NAME    = EARTH
REF_FRAME      = TEME
TIME_SYSTEM    = UTC
MEAN_ELEMENT_THEORY = SGP/SGP4

EPOCH          = 2026-02-13T23:08:09.592224
MEAN_MOTION    = 15.17640852
ECCENTRICITY   = .00088386
INCLINATION    = 97.4882
RA_OF_ASC_NODE = 174.2420
ARG_OF_PERICENTER = 296.3498
MEAN_ANOMALY   = 63.6828

EPHEMERIS_TYPE = 0
CLASSIFICATION_TYPE = U
NORAD_CAT_ID   = 67750
ELEMENT_SET_NO = 999
REV_AT_EPOCH   = 26
BSTAR          = .44567901E-3
MEAN_MOTION_DOT = .8914E-4
MEAN_MOTION_DDOT = 0

